{
  "norad_id": 61951,
  "name": "STARLINK-11395 [DTC]",
  "history": [
    {
      "epoch": "2026-04-16T14:30:47.241216Z",
      "apogee_km": 360.4556741901388,
      "perigee_km": 358.96795717163695,
      "latitude_deg": -5.6727570505356675e-05,
      "longitude_deg": 121.84818761291547,
      "height_km": 360.4491485849855,
      "semi_major_axis_km": 6737.848815680887,
      "eccentricity": 0.0001104,
      "inclination_deg": 53.1573,
      "raan_deg": 184.2951,
      "arg_perigee_deg": 76.3074,
      "mean_anomaly_deg": 283.8066,
      "mean_motion_rev_day": 15.69715219
    },
    {
      "epoch": "2026-04-17T11:54:21.561696Z",
      "apogee_km": 360.4334124396755,
      "perigee_km": 359.0053911538789,
      "latitude_deg": -5.626780721324591e-05,
      "longitude_deg": 155.68261345562595,
      "height_km": 360.2842031819453,
      "semi_major_axis_km": 6737.856401796777,
      "eccentricity": 0.00010597,
      "inclination_deg": 53.1569,
      "raan_deg": 179.9011,
      "arg_perigee_deg": 60.7604,
      "mean_anomaly_deg": 299.3519,
      "mean_motion_rev_day": 15.69712568
    },
    {
      "epoch": "2026-04-18T10:49:36.776640Z",
      "apogee_km": 360.6334024484986,
      "perigee_km": 358.64036893311095,
      "latitude_deg": 2.7238523570761256e-05,
      "longitude_deg": 166.21935302433252,
      "height_km": 360.6903646707458,
      "semi_major_axis_km": 6737.7738856908045,
      "eccentricity": 0.0001479,
      "inclination_deg": 53.1566,
      "raan_deg": 175.1925,
      "arg_perigee_deg": 98.116,
      "mean_anomaly_deg": 262.0026,
      "mean_motion_rev_day": 15.69741404
    },
    {
      "epoch": "2026-04-19T14:19:55.837056Z",
      "apogee_km": 360.74964720072603,
      "perigee_km": 359.01528099066763,
      "latitude_deg": -9.25621606146441e-07,
      "longitude_deg": 106.86061057556884,
      "height_km": 360.84952163566913,
      "semi_major_axis_km": 6738.019464095696,
      "eccentricity": 0.0001287,
      "inclination_deg": 53.1567,
      "raan_deg": 169.5428,
      "arg_perigee_deg": 93.5723,
      "mean_anomaly_deg": 266.5442,
      "mean_motion_rev_day": 15.69655587
    },
    {
      "epoch": "2026-04-20T13:15:11.549664Z",
      "apogee_km": 360.7034929659785,
      "perigee_km": 358.35097012289316,
      "latitude_deg": 3.726987014390964e-05,
      "longitude_deg": 117.39663480038114,
      "height_km": 361.3929342349662,
      "semi_major_axis_km": 6737.664231544436,
      "eccentricity": 0.00017458,
      "inclination_deg": 53.1566,
      "raan_deg": 164.8356,
      "arg_perigee_deg": 144.0578,
      "mean_anomaly_deg": 216.0558,
      "mean_motion_rev_day": 15.69779725
    },
    {
      "epoch": "2026-04-21T19:48:51.598944Z",
      "apogee_km": 360.6376616034295,
      "perigee_km": 358.44522103862346,
      "latitude_deg": 3.777225555579065e-05,
      "longitude_deg": 11.444859225656286,
      "height_km": 359.7297920983915,
      "semi_major_axis_km": 6737.678441321026,
      "eccentricity": 0.0001627,
      "inclination_deg": 53.1562,
      "raan_deg": 158.5558,
      "arg_perigee_deg": 48.6126,
      "mean_anomaly_deg": 311.5032,
      "mean_motion_rev_day": 15.69774759
    },
    {
      "epoch": "2026-04-22T09:34:01.558560Z",
      "apogee_km": 361.29366363025747,
      "perigee_km": 358.10949587423784,
      "latitude_deg": 3.6834082141268835e-06,
      "longitude_deg": 161.76362794821375,
      "height_km": 359.1778576159958,
      "semi_major_axis_km": 6737.838579752248,
      "eccentricity": 0.00023629,
      "inclination_deg": 53.1567,
      "raan_deg": 155.7309,
      "arg_perigee_deg": 25.4857,
      "mean_anomaly_deg": 334.6277,
      "mean_motion_rev_day": 15.69718796
    },
    {
      "epoch": "2026-04-23T08:29:16.689696Z",
      "apogee_km": 360.52823124794213,
      "perigee_km": 358.8242382808703,
      "latitude_deg": -1.7227420912302322e-06,
      "longitude_deg": 172.30064875829675,
      "height_km": 360.2288130598021,
      "semi_major_axis_km": 6737.813234764406,
      "eccentricity": 0.00012645,
      "inclination_deg": 53.1581,
      "raan_deg": 151.0223,
      "arg_perigee_deg": 64.9439,
      "mean_anomaly_deg": 295.171,
      "mean_motion_rev_day": 15.69727653
    },
    {
      "epoch": "2026-04-24T11:59:34.880064Z",
      "apogee_km": 360.6036964479363,
      "perigee_km": 358.61606111869605,
      "latitude_deg": -2.8389936266796184e-05,
      "longitude_deg": 112.9535417076388,
      "height_km": 360.1791517780497,
      "semi_major_axis_km": 6737.746878783316,
      "eccentricity": 0.0001475,
      "inclination_deg": 53.1576,
      "raan_deg": 145.3806,
      "arg_perigee_deg": 69.7632,
      "mean_anomaly_deg": 290.3544,
      "mean_motion_rev_day": 15.69750842
    },
    {
      "epoch": "2026-04-25T13:58:11.286912Z",
      "apogee_km": 361.41388134637054,
      "perigee_km": 357.569390446728,
      "latitude_deg": -3.772453169320408e-05,
      "longitude_deg": 76.89491063463595,
      "height_km": 362.23332012418126,
      "semi_major_axis_km": 6737.628635896549,
      "eccentricity": 0.0002853,
      "inclination_deg": 53.1575,
      "raan_deg": 140.0405,
      "arg_perigee_deg": 161.985,
      "mean_anomaly_deg": 198.1269,
      "mean_motion_rev_day": 15.69792165
    },
    {
      "epoch": "2026-04-26T12:53:27.538656Z",
      "apogee_km": 360.34277132752595,
      "perigee_km": 358.71629862598274,
      "latitude_deg": -4.494287641098381e-07,
      "longitude_deg": 87.4291836243405,
      "height_km": 360.15291756144154,
      "semi_major_axis_km": 6737.666534976754,
      "eccentricity": 0.0001207,
      "inclination_deg": 53.1569,
      "raan_deg": 135.3338,
      "arg_perigee_deg": 69.1136,
      "mean_anomaly_deg": 291.0011,
      "mean_motion_rev_day": 15.6977892
    },
    {
      "epoch": "2026-04-27T17:55:27.795072Z",
      "apogee_km": 360.53324535247884,
      "perigee_km": 358.6709342680542,
      "latitude_deg": -1.6484779313920495e-06,
      "longitude_deg": 4.770955645187622,
      "height_km": 360.5629865040957,
      "semi_major_axis_km": 6737.739089810266,
      "eccentricity": 0.0001382,
      "inclination_deg": 53.1571,
      "raan_deg": 129.369,
      "arg_perigee_deg": 92.95,
      "mean_anomaly_deg": 267.1676,
      "mean_motion_rev_day": 15.69753564
    },
    {
      "epoch": "2026-04-28T07:40:36.730848Z",
      "apogee_km": 360.50874373564693,
      "perigee_km": 358.63835528710297,
      "latitude_deg": -1.9428311416587133e-05,
      "longitude_deg": 155.0937160596207,
      "height_km": 360.80907960861754,
      "semi_major_axis_km": 6737.710549511375,
      "eccentricity": 0.0001388,
      "inclination_deg": 53.157,
      "raan_deg": 126.5438,
      "arg_perigee_deg": 110.1698,
      "mean_anomaly_deg": 249.9469,
      "mean_motion_rev_day": 15.69763538
    },
    {
      "epoch": "2026-04-29T11:10:55.246944Z",
      "apogee_km": 360.5844654327693,
      "perigee_km": 358.6806412677752,
      "latitude_deg": 2.659057991824062e-05,
      "longitude_deg": 95.73770444784721,
      "height_km": 360.8438511923425,
      "semi_major_axis_km": 6737.769553350272,
      "eccentricity": 0.00014128,
      "inclination_deg": 53.1571,
      "raan_deg": 120.8945,
      "arg_perigee_deg": 108.2613,
      "mean_anomaly_deg": 251.8559,
      "mean_motion_rev_day": 15.69742918
    },
    {
      "epoch": "2026-04-30T10:06:10.950912Z",
      "apogee_km": 360.507994514468,
      "perigee_km": 358.53413020851985,
      "latitude_deg": 9.42440638721334e-06,
      "longitude_deg": 106.27352518990276,
      "height_km": 359.90950963160896,
      "semi_major_axis_km": 6737.658062361494,
      "eccentricity": 0.00014648,
      "inclination_deg": 53.1565,
      "raan_deg": 116.1871,
      "arg_perigee_deg": 57.8849,
      "mean_anomaly_deg": 302.2311,
      "mean_motion_rev_day": 15.69781881
    },
    {
      "epoch": "2026-05-02T07:56:42.218016Z",
      "apogee_km": 360.58582102609216,
      "perigee_km": 358.701937492252,
      "latitude_deg": 1.0138603995668222e-05,
      "longitude_deg": 127.34367896065541,
      "height_km": 359.976918070373,
      "semi_major_axis_km": 6737.780879259172,
      "eccentricity": 0.0001398,
      "inclination_deg": 53.1572,
      "raan_deg": 106.7702,
      "arg_perigee_deg": 51.9679,
      "mean_anomaly_deg": 308.1465,
      "mean_motion_rev_day": 15.6973896
    },
    {
      "epoch": "2026-05-03T08:23:38.107104Z",
      "apogee_km": 360.26193460441846,
      "perigee_km": 358.73815061086225,
      "latitude_deg": -6.494752064303892e-06,
      "longitude_deg": 114.58451390029147,
      "height_km": 360.47221045031057,
      "semi_major_axis_km": 6737.63704260764,
      "eccentricity": 0.00011308,
      "inclination_deg": 53.1574,
      "raan_deg": 101.748,
      "arg_perigee_deg": 94.4263,
      "mean_anomaly_deg": 265.6884,
      "mean_motion_rev_day": 15.69789227
    },
    {
      "epoch": "2026-05-04T14:57:19.409184Z",
      "apogee_km": 360.7917354754509,
      "perigee_km": 358.4200499772114,
      "latitude_deg": 5.5604165021807944e-05,
      "longitude_deg": 8.631148896744856,
      "height_km": 360.30905151413526,
      "semi_major_axis_km": 6737.742892726331,
      "eccentricity": 0.000176,
      "inclination_deg": 53.1573,
      "raan_deg": 95.4718,
      "arg_perigee_deg": 79.8322,
      "mean_anomaly_deg": 280.2895,
      "mean_motion_rev_day": 15.69752235
    },
    {
      "epoch": "2026-05-05T04:42:28.181664Z",
      "apogee_km": 360.2225767002674,
      "perigee_km": 358.7684608500649,
      "latitude_deg": -1.8334144967053751e-06,
      "longitude_deg": 158.9551594889276,
      "height_km": 360.29690122285575,
      "semi_major_axis_km": 6737.632518775165,
      "eccentricity": 0.00010791,
      "inclination_deg": 53.1577,
      "raan_deg": 92.6472,
      "arg_perigee_deg": 81.1303,
      "mean_anomaly_deg": 278.9837,
      "mean_motion_rev_day": 15.69790808
    }
  ]
}